[{"OBJECT_NAME":"SAUDISAT 5B","OBJECT_ID":"2018-102C","EPOCH":"2026-03-09T22:59:17.457216","MEAN_MOTION":15.27248504,"ECCENTRICITY":0.00120577,"INCLINATION":97.3281,"RA_OF_ASC_NODE":135.3629,"ARG_OF_PERICENTER":124.0958,"MEAN_ANOMALY":236.1427,"EPHEMERIS_TYPE":0,"CLASSIFICATION_TYPE":"U","NORAD_CAT_ID":43833,"ELEMENT_SET_NO":999,"REV_AT_EPOCH":40064,"BSTAR":0.00024926623,"MEAN_MOTION_DOT":6.596e-5,"MEAN_MOTION_DDOT":0},{"OBJECT_NAME":"STARLINK-32827","OBJECT_ID":"2025-034Q","EPOCH":"2026-03-09T20:09:30.396960","MEAN_MOTION":15.30196539,"ECCENTRICITY":8.076e-5,"INCLINATION":53.1572,"RA_OF_ASC_NODE":270.6511,"ARG_OF_PERICENTER":87.7595,"MEAN_ANOMALY":272.3499,"EPHEMERIS_TYPE":0,"CLASSIFICATION_TYPE":"U","NORAD_CAT_ID":63043,"ELEMENT_SET_NO":999,"REV_AT_EPOCH":5892,"BSTAR":0.00065380866,"MEAN_MOTION_DOT":0.00019052,"MEAN_MOTION_DDOT":0}]
